 Automated mail xmit by MAIL_REQUEST, PID= 432 Mon Jul 31 11:18:12 2017
++++++++++++++++++++++++++++++++ (part 1 of 1)  +++++++++++++++++++++++++++++++

*******************************************************************************
 Revised: Jul 31, 2013              Mercury                             199 / 1

 GEOPHYSICAL DATA (updated 2008-Feb-07):
  Mean radius (km)      =  2440(+-1)     Density (g cm^-3)     =  5.427
  Mass (10^23 kg )      =     3.302      Flattening, f         =  
  Volume (x10^10 km^3)  =     6.085      Semi-major axis       = 
  Sidereal rot. period  =    58.6462 d   Rot. Rate (x10^5 s)   =  0.124001
  Mean solar day        =   175.9421 d   Polar gravity ms^-2   =
  Mom. of Inertia       =     0.33       Equ. gravity  ms^-2   =  3.701     
  Core radius (km)      = ~1600          Potential Love # k2   =

  GM (km^3 s^-2)        = 22032.09       Equatorial Radius, Re =    2440 km
  GM 1-sigma (km^3 s^-2)=   +-0.91       Mass ratio (sun/plnt) = 6023600
 
  Atmos. pressure (bar) =                Max. angular diam.    = 11.0"   
  Mean Temperature (K)  =                Visual mag. V(1,0)    = -0.42 
  Geometric albedo      =   0.106        Obliquity to orbit[1] = 2.11' +/- 0.1'  
  Sidereal orb. per.    =   0.2408467 y  Mean Orbit vel.  km/s = 47.362 
  Sidereal orb. per.    =  87.969257  d  Escape vel. km/s      =  4.435
  Hill's sphere rad. Rp =  94.4          Planetary Solar Const = 9936.9 (Wm^2)

[1] Margot et al., Science 316, 2007
*******************************************************************************
 
 
*******************************************************************************
Ephemeris / MAIL_REQUEST Mon Jul 31 11:18:12 2017 Pasadena, USA  / Horizons    
*******************************************************************************
Target body name: Mercury (199)                   {source: DE431mx}
Center body name: Solar System Barycenter (0)     {source: DE431mx}
Center-site name: BODY CENTER
*******************************************************************************
Start time      : A.D. 2017-Jul-10 00:00:00.0000 TDB
Stop  time      : A.D. 2020-Aug-13 00:00:00.0000 TDB
Step-size       : 1440 minutes
*******************************************************************************
Center geodetic : 0.00000000,0.00000000,0.0000000 {E-lon(deg),Lat(deg),Alt(km)}
Center cylindric: 0.00000000,0.00000000,0.0000000 {E-lon(deg),Dxy(km),Dz(km)}
Center radii    : (undefined)                                                  
Output units    : KM-S                                                         
Output type     : GEOMETRIC cartesian states
Output format   : 3 (position, velocity, LT, range, range-rate)
Reference frame : ICRF/J2000.0                                                 
Coordinate systm: Ecliptic and Mean Equinox of Reference Epoch                 
*******************************************************************************
            JDTDB,            Calendar Date (TDB),                      X,                      Y,                      Z,                     VX,                     VY,                     VZ,                     LT,                     RG,                     RR,
**************************************************************************************************************************************************************************************************************************************************************************
$$SOE
2458112.500000000, A.D. 2017-Dec-25 00:00:00.0000, -4.469230271292344E+07,  2.675382783436820E+07,  6.218856206151407E+06, -3.427373485589897E+01, -4.018176298794128E+01, -1.405023258263061E-01,  1.749811050123045E+02,  5.245801557519487E+07,  8.690424055540642E+00,
2458113.500000000, A.D. 2017-Dec-26 00:00:00.0000, -4.749649073607102E+07,  2.319771244615544E+07,  6.185410437300760E+06, -3.063035835010123E+01, -4.207408129724455E+01, -6.293717005320598E-01,  1.775209749487634E+02,  5.321944942644619E+07,  8.923789612281487E+00,
2458114.500000000, A.D. 2017-Dec-27 00:00:00.0000, -4.998443543082374E+07,  1.949381187956725E+07,  6.110876621474458E+06, -2.695925094239504E+01, -4.360588922918063E+01, -1.091326712388771E+00,  1.801182890215434E+02,  5.399810459652291E+07,  9.089744488126028E+00,
2458115.500000000, A.D. 2017-Dec-28 00:00:00.0000, -5.215520620757469E+07,  1.567241799713124E+07,  5.997644625989738E+06, -2.329341388133831E+01, -4.479736007517744E+01, -1.524988254518117E+00,  1.827542233359518E+02,  5.478833782376596E+07,  9.192531374177326E+00,
2458116.500000000, A.D. 2017-Dec-29 00:00:00.0000, -5.401049101096997E+07,  1.176200356470307E+07,  5.848195898056211E+06, -1.966052772619526E+01, -4.567025881402748E+01, -1.929595400379664E+00,  1.854112133733348E+02,  5.558488339795450E+07,  9.236618407093335E+00,
2458117.500000000, A.D. 2017-Dec-30 00:00:00.0000, -5.555415571315254E+07,  7.789125671052622E+06,  5.665055151740247E+06, -1.608341066350528E+01, -4.624703126520529E+01, -2.304888929896581E+00,  1.880729958500142E+02,  5.638286570929956E+07,  9.226544846741698E+00,
2458118.500000000, A.D. 2017-Dec-31 00:00:00.0000, -5.679184644695014E+07,  3.778398598420816E+06,  5.450751669277137E+06, -1.258054490194085E+01, -4.655010339107474E+01, -2.651005781996052E+00,  1.907246112167020E+02,  5.717779999774946E+07,  9.166801708179696E+00,
2458119.500000000, A.D. 2018-Jan-01 00:00:00.0000, -5.773063859343297E+07, -2.474809078820562E+05,  5.207789164126894E+06, -9.166623618026254E+00, -4.660136421755869E+01, -2.968386625837031E+00,  1.933523763346135E+02,  5.796558416149479E+07,  9.061743429877405E+00,
2458120.500000000, A.D. 2018-Jan-02 00:00:00.0000, -5.837873268332683E+07, -4.267670555106854E+06,  4.938623037854269E+06, -5.853085581088628E+00, -4.642180254647107E+01, -3.257697129121748E+00,  1.959438356120425E+02,  5.874248410808215E+07,  8.915525930053027E+00,
2458121.500000000, A.D. 2018-Jan-03 00:00:00.0000, -5.874519516680776E+07, -8.263093607581939E+06,  4.645643862326681E+06, -2.648616495987830E+00, -4.603126802344715E+01, -3.519762441179978E+00,  1.984876975182541E+02,  5.950511472175789E+07,  8.732066296824758E+00,
2458122.500000000, A.D. 2018-Jan-04 00:00:00.0000, -5.883974060779884E+07, -1.221633373942871E+07,  4.331165990169268E+06,  4.403947966079900E-01, -4.544832966918710E+01, -3.755513781431123E+00,  2.009737620557937E+02,  6.025041812021352E+07,  8.515019646030732E+00,
2458123.500000000, A.D. 2018-Jan-05 00:00:00.0000, -5.867255113514225E+07, -1.611152102174981E+07,  3.997420307585354E+06,  3.409450541211153E+00, -4.469020856595817E+01, -3.965945712929566E+00,  2.033928435543815E+02,  6.097564050877746E+07,  8.267769184821487E+00,
2458124.500000000, A.D. 2018-Jan-06 00:00:00.0000, -5.825412873464216E+07, -1.993421458434170E+07,  3.646550271724912E+06,  6.255589488035783E+00, -4.377276527587717E+01, -4.152082585240535E+00,  2.057366920922941E+02,  6.167830862313800E+07,  7.993426112658685E+00,
2458125.500000000, A.D. 2018-Jan-07 00:00:00.0000, -5.759517603333493E+07, -2.367128597737001E+07,  3.280610504726917E+06,  8.977081408025661E+00, -4.271052630421429E+01, -4.314952671719730E+00,  2.079979159673867E+02,  6.235620648674032E+07,  7.694836591286425E+00,
2458126.500000000, A.D. 2018-Jan-08 00:00:00.0000, -5.670650148936284E+07, -2.731080605112636E+07,  2.901567339252796E+06,  1.157316690983158E+01, -4.151673727125075E+01, -4.455568645218593E+00,  2.101699069237755E+02,  6.300735299430988E+07,  7.374593572672166E+00,
2458127.500000000, A.D. 2018-Jan-09 00:00:00.0000, -5.559894526990839E+07, -3.084193723350137E+07,  2.511300820873884E+06,  1.404383792335632E+01, -4.020343332104643E+01, -4.574913193010048E+00,  2.122467692754097E+02,  6.362998066363394E+07,  7.035051764169783E+00,
2458128.500000000, A.D. 2018-Jan-10 00:00:00.0000, -5.428332251522578E+07, -3.425483237218774E+07,  2.111607769031415E+06,  1.638965394111577E+01, -3.878151966168871E+01, -4.673928740001010E+00,  2.142232536334077E+02,  6.422251576751671E+07,  6.678344424635108E+00,
2458129.500000000, A.D. 2018-Jan-11 00:00:00.0000, -5.277038110904530E+07, -3.754054078005108E+07,  1.704205580215199E+06,  1.861158919881736E+01, -3.726085703396602E+01, -4.753510413017333E+00,  2.160946956182743E+02,  6.478355996016428E+07,  6.306401025143053E+00,
2458130.500000000, A.D. 2018-Jan-12 00:00:00.0000, -5.107077147987850E+07, -4.069092173988564E+07,  1.290736525325539E+06,  2.071090628221086E+01, -3.565034840145407E+01, -4.814501529233628E+00,  2.178569597003336E+02,  6.531187344096997E+07,  5.920965079921510E+00,
2458131.500000000, A.D. 2018-Jan-13 00:00:00.0000, -4.919502633011275E+07, -4.369856545658320E+07,  8.727723492576573E+05,  2.268905206598046E+01, -3.395802430939240E+01, -4.857691024561868E+00,  2.195063881435923E+02,  6.580635964826958E+07,  5.523611666172801E+00,
2458132.500000000, A.D. 2018-Jan-14 00:00:00.0000, -4.715354852363657E+07, -4.655672126381827E+07,  4.518190261595733E+05,  2.454757235408765E+01, -3.219112523538145E+01, -4.883812351898845E+00,  2.210397549141976E+02,  6.626605144144487E+07,  5.115764315233755E+00,
2458133.500000000, A.D. 2018-Jan-15 00:00:00.0000, -4.495660565621760E+07, -4.925923277710832E+07,  2.932156015495583E+04,  2.628804205632462E+01, -3.035617990846881E+01, -4.893543475226810E+00,  2.224542243418222E+02,  6.669009870791832E+07,  4.698711081202952E+00,
2458134.500000000, A.D. 2018-Jan-16 00:00:00.0000, -4.261433008703040E+07, -5.180047961851221E+07, -3.933312499175891E+05,  2.791200817718316E+01, -2.845907905315504E+01, -4.887507665269149E+00,  2.237473142803293E+02,  6.707775731899840E+07,  4.273619684926184E+00,
2458135.500000000, A.D. 2018-Jan-17 00:00:00.0000, -4.013672342734098E+07, -5.417532530708089E+07, -8.148021406888589E+05,  2.942094329670560E+01, -2.650514436144815E+01, -4.866274867747419E+00,  2.249168634948031E+02,  6.742837935275750E+07,  3.841551698069511E+00,
